[
  {
    "COMMENT": "GENERATED VIA SPACETRACK.ORG API",
    "ORIGINATOR": "18 SPCS",
    "NORAD_CAT_ID": "27386",
    "OBJECT_NAME": "ENVISAT",
    "OBJECT_TYPE": "PAYLOAD",
    "CLASSIFICATION_TYPE": "U",
    "INTLDES": "02009A",
    "EPOCH": "2023-04-19 22:02:27",
    "EPOCH_MICROSECONDS": "16800",
    "MEAN_MOTION": "14.38321006",
    "ECCENTRICITY": "0.0001321",
    "INCLINATION": "98.2262",
    "RA_OF_ASC_NODE": "82.3311",
    "ARG_OF_PERICENTER": "83.6938",
    "MEAN_ANOMALY": "334.1079",
    "EPHEMERIS_TYPE": "0",
    "ELEMENT_SET_NO": "999",
    "REV_AT_EPOCH": "10758",
    "BSTAR": "0.00018833",
    "MEAN_MOTION_DOT": "0.00000532",
    "MEAN_MOTION_DDOT": "0",
    "FILE": "3890665",
    "TLE_LINE0": "0 ENVISAT",
    "TLE_LINE1": "1 27386U 02009A   23109.91836825  .00000532  00000-0  18833-3 0  9990",
    "TLE_LINE2": "2 27386  98.2262  82.3311 0001321  83.6938 334.1079 14.38321006107585",
    "OBJECT_ID": "2002-009A",
    "OBJECT_NUMBER": "27386",
    "SEMIMAJOR_AXIS": "7142.188",
    "PERIOD": "100.117",
    "APOGEE": "764.997",
    "PERIGEE": "763.110",
    "DECAYED": "0"
  },
  {
    "COMMENT": "GENERATED VIA SPACETRACK.ORG API",
    "ORIGINATOR": "18 SPCS",
    "NORAD_CAT_ID": "27386",
    "OBJECT_NAME": "ENVISAT",
    "OBJECT_TYPE": "PAYLOAD",
    "CLASSIFICATION_TYPE": "U",
    "INTLDES": "02009A",
    "EPOCH": "2023-04-20 10:15:21",
    "EPOCH_MICROSECONDS": "927168",
    "MEAN_MOTION": "14.38321316",
    "ECCENTRICITY": "0.0001324",
    "INCLINATION": "98.2262",
    "RA_OF_ASC_NODE": "82.8188",
    "ARG_OF_PERICENTER": "83.7815",
    "MEAN_ANOMALY": "87.9065",
    "EPHEMERIS_TYPE": "0",
    "ELEMENT_SET_NO": "999",
    "REV_AT_EPOCH": "10758",
    "BSTAR": "0.00017441",
    "MEAN_MOTION_DOT": "0.00000489",
    "MEAN_MOTION_DDOT": "0",
    "FILE": "3890827",
    "TLE_LINE0": "0 ENVISAT",
    "TLE_LINE1": "1 27386U 02009A   23110.42733712  .00000489  00000-0  17441-3 0  9994",
    "TLE_LINE2": "2 27386  98.2262  82.8188 0001324  83.7815  87.9065 14.38321316107582",
    "OBJECT_ID": "2002-009A",
    "OBJECT_NUMBER": "27386",
    "SEMIMAJOR_AXIS": "7142.187",
    "PERIOD": "100.117",
    "APOGEE": "764.998",
    "PERIGEE": "763.107",
    "DECAYED": "0"
  },
  {
    "COMMENT": "GENERATED VIA SPACETRACK.ORG API",
    "ORIGINATOR": "18 SPCS",
    "NORAD_CAT_ID": "27386",
    "OBJECT_NAME": "ENVISAT",
    "OBJECT_TYPE": "PAYLOAD",
    "CLASSIFICATION_TYPE": "U",
    "INTLDES": "02009A",
    "EPOCH": "2023-04-20 16:56:21",
    "EPOCH_MICROSECONDS": "889824",
    "MEAN_MOTION": "14.38321448",
    "ECCENTRICITY": "0.0001321",
    "INCLINATION": "98.2263",
    "RA_OF_ASC_NODE": "83.0857",
    "ARG_OF_PERICENTER": "83.9054",
    "MEAN_ANOMALY": "88.8595",
    "EPHEMERIS_TYPE": "0",
    "ELEMENT_SET_NO": "999",
    "REV_AT_EPOCH": "10762",
    "BSTAR": "0.000166",
    "MEAN_MOTION_DOT": "0.00000464",
    "MEAN_MOTION_DDOT": "0",
    "FILE": "3891109",
    "TLE_LINE0": "0 ENVISAT",
    "TLE_LINE1": "1 27386U 02009A   23110.70580891  .00000464  00000-0  16600-3 0  9992",
    "TLE_LINE2": "2 27386  98.2263  83.0857 0001321  83.9054  88.8595 14.38321448107622",
    "OBJECT_ID": "2002-009A",
    "OBJECT_NUMBER": "27386",
    "SEMIMAJOR_AXIS": "7142.187",
    "PERIOD": "100.117",
    "APOGEE": "764.995",
    "PERIGEE": "763.108",
    "DECAYED": "0"
  },
  {
    "COMMENT": "GENERATED VIA SPACETRACK.ORG API",
    "ORIGINATOR": "18 SPCS",
    "NORAD_CAT_ID": "27386",
    "OBJECT_NAME": "ENVISAT",
    "OBJECT_TYPE": "PAYLOAD",
    "CLASSIFICATION_TYPE": "U",
    "INTLDES": "02009A",
    "EPOCH": "2023-04-20 23:07:56",
    "EPOCH_MICROSECONDS": "576928",
    "MEAN_MOTION": "14.38321678",
    "ECCENTRICITY": "0.0001314",
    "INCLINATION": "98.2264",
    "RA_OF_ASC_NODE": "83.333",
    "ARG_OF_PERICENTER": "84.0353",
    "MEAN_ANOMALY": "344.0756",
    "EPHEMERIS_TYPE": "0",
    "ELEMENT_SET_NO": "999",
    "REV_AT_EPOCH": "10773",
    "BSTAR": "0.00016079",
    "MEAN_MOTION_DOT": "0.00000448",
    "MEAN_MOTION_DDOT": "0",
    "FILE": "3891221",
    "TLE_LINE0": "0 ENVISAT",
    "TLE_LINE1": "1 27386U 02009A   23110.96384927  .00000448  00000-0  16079-3 0  9994",
    "TLE_LINE2": "2 27386  98.2264  83.3330 0001314  84.0353 344.0756 14.38321678107731",
    "OBJECT_ID": "2002-009A",
    "OBJECT_NUMBER": "27386",
    "SEMIMAJOR_AXIS": "7142.186",
    "PERIOD": "100.117",
    "APOGEE": "764.990",
    "PERIGEE": "763.113",
    "DECAYED": "0"
  },
  {
    "COMMENT": "GENERATED VIA SPACETRACK.ORG API",
    "ORIGINATOR": "18 SPCS",
    "NORAD_CAT_ID": "27386",
    "OBJECT_NAME": "ENVISAT",
    "OBJECT_TYPE": "PAYLOAD",
    "CLASSIFICATION_TYPE": "U",
    "INTLDES": "02009A",
    "EPOCH": "2023-04-20 23:07:56",
    "EPOCH_MICROSECONDS": "576928",
    "MEAN_MOTION": "14.38321678",
    "ECCENTRICITY": "0.0001314",
    "INCLINATION": "98.2264",
    "RA_OF_ASC_NODE": "83.333",
    "ARG_OF_PERICENTER": "84.0353",
    "MEAN_ANOMALY": "344.0756",
    "EPHEMERIS_TYPE": "0",
    "ELEMENT_SET_NO": "999",
    "REV_AT_EPOCH": "10766",
    "BSTAR": "0.00016079",
    "MEAN_MOTION_DOT": "0.00000448",
    "MEAN_MOTION_DDOT": "0",
    "FILE": "3891529",
    "TLE_LINE0": "0 ENVISAT",
    "TLE_LINE1": "1 27386U 02009A   23110.96384927  .00000448  00000-0  16079-3 0  9994",
    "TLE_LINE2": "2 27386  98.2264  83.3330 0001314  84.0353 344.0756 14.38321678107663",
    "OBJECT_ID": "2002-009A",
    "OBJECT_NUMBER": "27386",
    "SEMIMAJOR_AXIS": "7142.186",
    "PERIOD": "100.117",
    "APOGEE": "764.990",
    "PERIGEE": "763.113",
    "DECAYED": "0"
  },
  {
    "COMMENT": "GENERATED VIA SPACETRACK.ORG API",
    "ORIGINATOR": "18 SPCS",
    "NORAD_CAT_ID": "27386",
    "OBJECT_NAME": "ENVISAT",
    "OBJECT_TYPE": "PAYLOAD",
    "CLASSIFICATION_TYPE": "U",
    "INTLDES": "02009A",
    "EPOCH": "2023-04-21 22:17:07",
    "EPOCH_MICROSECONDS": "602144",
    "MEAN_MOTION": "14.38322589",
    "ECCENTRICITY": "0.0001315",
    "INCLINATION": "98.2265",
    "RA_OF_ASC_NODE": "84.2574",
    "ARG_OF_PERICENTER": "84.054",
    "MEAN_ANOMALY": "296.389",
    "EPHEMERIS_TYPE": "0",
    "ELEMENT_SET_NO": "999",
    "REV_AT_EPOCH": "10780",
    "BSTAR": "0.00015407",
    "MEAN_MOTION_DOT": "0.00000428",
    "MEAN_MOTION_DDOT": "0",
    "FILE": "3891716",
    "TLE_LINE0": "0 ENVISAT",
    "TLE_LINE1": "1 27386U 02009A   23111.92856021  .00000428  00000-0  15407-3 0  9992",
    "TLE_LINE2": "2 27386  98.2265  84.2574 0001315  84.0540 296.3890 14.38322589107809",
    "OBJECT_ID": "2002-009A",
    "OBJECT_NUMBER": "27386",
    "SEMIMAJOR_AXIS": "7142.183",
    "PERIOD": "100.117",
    "APOGEE": "764.987",
    "PERIGEE": "763.109",
    "DECAYED": "0"
  },
  {
    "COMMENT": "GENERATED VIA SPACETRACK.ORG API",
    "ORIGINATOR": "18 SPCS",
    "NORAD_CAT_ID": "27386",
    "OBJECT_NAME": "ENVISAT",
    "OBJECT_TYPE": "PAYLOAD",
    "CLASSIFICATION_TYPE": "U",
    "INTLDES": "02009A",
    "EPOCH": "2023-04-21 22:17:07",
    "EPOCH_MICROSECONDS": "602144",
    "MEAN_MOTION": "14.38322589",
    "ECCENTRICITY": "0.0001315",
    "INCLINATION": "98.2265",
    "RA_OF_ASC_NODE": "84.2574",
    "ARG_OF_PERICENTER": "84.054",
    "MEAN_ANOMALY": "296.389",
    "EPHEMERIS_TYPE": "0",
    "ELEMENT_SET_NO": "999",
    "REV_AT_EPOCH": "10787",
    "BSTAR": "0.00015407",
    "MEAN_MOTION_DOT": "0.00000428",
    "MEAN_MOTION_DDOT": "0",
    "FILE": "3891815",
    "TLE_LINE0": "0 ENVISAT",
    "TLE_LINE1": "1 27386U 02009A   23111.92856021  .00000428  00000-0  15407-3 0  9992",
    "TLE_LINE2": "2 27386  98.2265  84.2574 0001315  84.0540 296.3890 14.38322589107876",
    "OBJECT_ID": "2002-009A",
    "OBJECT_NUMBER": "27386",
    "SEMIMAJOR_AXIS": "7142.183",
    "PERIOD": "100.117",
    "APOGEE": "764.987",
    "PERIGEE": "763.109",
    "DECAYED": "0"
  },
  {
    "COMMENT": "GENERATED VIA SPACETRACK.ORG API",
    "ORIGINATOR": "18 SPCS",
    "NORAD_CAT_ID": "27386",
    "OBJECT_NAME": "ENVISAT",
    "OBJECT_TYPE": "PAYLOAD",
    "CLASSIFICATION_TYPE": "U",
    "INTLDES": "02009A",
    "EPOCH": "2023-04-22 17:21:41",
    "EPOCH_MICROSECONDS": "652864",
    "MEAN_MOTION": "14.38323225",
    "ECCENTRICITY": "0.0001315",
    "INCLINATION": "98.2267",
    "RA_OF_ASC_NODE": "85.0192",
    "ARG_OF_PERICENTER": "84.1245",
    "MEAN_ANOMALY": "89.5714",
    "EPHEMERIS_TYPE": "0",
    "ELEMENT_SET_NO": "999",
    "REV_AT_EPOCH": "10798",
    "BSTAR": "0.00014512",
    "MEAN_MOTION_DOT": "0.000004",
    "MEAN_MOTION_DDOT": "0",
    "FILE": "3892178",
    "TLE_LINE0": "0 ENVISAT",
    "TLE_LINE1": "1 27386U 02009A   23112.72339876  .00000400  00000-0  14512-3 0  9991",
    "TLE_LINE2": "2 27386  98.2267  85.0192 0001315  84.1245  89.5714 14.38323225107983",
    "OBJECT_ID": "2002-009A",
    "OBJECT_NUMBER": "27386",
    "SEMIMAJOR_AXIS": "7142.181",
    "PERIOD": "100.117",
    "APOGEE": "764.985",
    "PERIGEE": "763.107",
    "DECAYED": "0"
  },
  {
    "COMMENT": "GENERATED VIA SPACETRACK.ORG API",
    "ORIGINATOR": "18 SPCS",
    "NORAD_CAT_ID": "27386",
    "OBJECT_NAME": "ENVISAT",
    "OBJECT_TYPE": "PAYLOAD",
    "CLASSIFICATION_TYPE": "U",
    "INTLDES": "02009A",
    "EPOCH": "2023-04-22 17:21:41",
    "EPOCH_MICROSECONDS": "652864",
    "MEAN_MOTION": "14.38323225",
    "ECCENTRICITY": "0.0001315",
    "INCLINATION": "98.2267",
    "RA_OF_ASC_NODE": "85.0192",
    "ARG_OF_PERICENTER": "84.1245",
    "MEAN_ANOMALY": "89.5714",
    "EPHEMERIS_TYPE": "0",
    "ELEMENT_SET_NO": "999",
    "REV_AT_EPOCH": "10791",
    "BSTAR": "0.00014512",
    "MEAN_MOTION_DOT": "0.000004",
    "MEAN_MOTION_DDOT": "0",
    "FILE": "3892285",
    "TLE_LINE0": "0 ENVISAT",
    "TLE_LINE1": "1 27386U 02009A   23112.72339876  .00000400  00000-0  14512-3 0  9991",
    "TLE_LINE2": "2 27386  98.2267  85.0192 0001315  84.1245  89.5714 14.38323225107916",
    "OBJECT_ID": "2002-009A",
    "OBJECT_NUMBER": "27386",
    "SEMIMAJOR_AXIS": "7142.181",
    "PERIOD": "100.117",
    "APOGEE": "764.985",
    "PERIGEE": "763.107",
    "DECAYED": "0"
  }
]